[{"OBJECT_NAME":"TEVEL2-4","OBJECT_ID":"2025-052D","EPOCH":"2026-03-09T16:39:37.129536","MEAN_MOTION":15.30925813,"ECCENTRICITY":0.0004733,"INCLINATION":97.4009,"RA_OF_ASC_NODE":325.1237,"ARG_OF_PERICENTER":95.3468,"MEAN_ANOMALY":264.8313,"EPHEMERIS_TYPE":0,"CLASSIFICATION_TYPE":"U","NORAD_CAT_ID":63213,"ELEMENT_SET_NO":999,"REV_AT_EPOCH":5487,"BSTAR":0.00070362503,"MEAN_MOTION_DOT":0.0002099,"MEAN_MOTION_DDOT":0},{"OBJECT_NAME":"STARLINK-36000","OBJECT_ID":"2025-278S","EPOCH":"2026-03-09T23:18:12.174336","MEAN_MOTION":15.27622346,"ECCENTRICITY":0.00026836,"INCLINATION":43.0036,"RA_OF_ASC_NODE":112.6446,"ARG_OF_PERICENTER":306.3102,"MEAN_ANOMALY":53.7501,"EPHEMERIS_TYPE":0,"CLASSIFICATION_TYPE":"U","NORAD_CAT_ID":66807,"ELEMENT_SET_NO":999,"REV_AT_EPOCH":1525,"BSTAR":0.0013340565,"MEAN_MOTION_DOT":0.0003668,"MEAN_MOTION_DDOT":0}]
